[{"OBJECT_NAME":"GRACE-FO 2","OBJECT_ID":"2018-047B","EPOCH":"2026-03-09T22:18:30.629952","MEAN_MOTION":15.37442345,"ECCENTRICITY":0.00130795,"INCLINATION":88.9902,"RA_OF_ASC_NODE":211.5805,"ARG_OF_PERICENTER":129.3432,"MEAN_ANOMALY":230.8984,"EPHEMERIS_TYPE":0,"CLASSIFICATION_TYPE":"U","NORAD_CAT_ID":43477,"ELEMENT_SET_NO":999,"REV_AT_EPOCH":43454,"BSTAR":0.00017253527,"MEAN_MOTION_DOT":6.378e-5,"MEAN_MOTION_DDOT":0},{"OBJECT_NAME":"POLYTECH UNIVERSE-4","OBJECT_ID":"2024-199N","EPOCH":"2026-03-09T22:39:35.452512","MEAN_MOTION":15.41920317,"ECCENTRICITY":0.00080129,"INCLINATION":97.316,"RA_OF_ASC_NODE":301.6563,"ARG_OF_PERICENTER":282.4901,"MEAN_ANOMALY":77.5449,"EPHEMERIS_TYPE":0,"CLASSIFICATION_TYPE":"U","NORAD_CAT_ID":61747,"ELEMENT_SET_NO":999,"REV_AT_EPOCH":12205,"BSTAR":0.00052704604,"MEAN_MOTION_DOT":0.0002238,"MEAN_MOTION_DDOT":0}]
